HXMT (HUIYAN)           
1 42758U 17034A   26115.96333385  .00003759  00000+0  19099-3 0  9990
2 42758  43.0132 113.7281 0031430 176.5103 183.5970 15.17992010489726
SAOCOM 1A               
1 43641U 18076A   26115.95039698  .00000979  00000+0  12954-3 0  9992
2 43641  97.8906 303.4548 0001564  90.0147 270.1245 14.82155460408361
H-2A R/B                
1 43682U 18084L   26115.89827114  .00021409  00000+0  47942-3 0  9993
2 43682  98.8662 343.4354 0023411 216.3407 143.6247 15.43208892413056
SAOCOM 1B               
1 46265U 20059A   26115.91408950 -.00000225  00000+0 -21727-4 0  9993
2 46265  97.8898 302.5129 0001541  83.7230 276.4158 14.82140824305746
CSS (TIANHE)            
1 48274U 21035A   26115.90640323  .00030509  00000+0  32916-3 0  9998
2 48274  41.4670 280.3691 0006843 274.1107  85.8950 15.62962461284990
COSMOS 2550             
1 48865U 21056A   26115.92323031  .00001209  00000+0  42562-4 0  9997
2 48865  67.1428 258.0008 0008404 269.4330  90.5861 15.33825298270708
CZ-2C R/B               
1 52794U 22058K   26115.39248129  .00046492  00000+0  59663-3 0  9993
2 52794  50.1868  77.4034 0038959  40.8644 319.5237 15.57697834217401
CZ-2C R/B               
1 54039U 22132E   26115.90710800  .00050458  00000+0  48811-3 0  9997
2 54039  97.2942 120.8189 0012863 271.4101  88.5686 15.66175497197752
GSLV R/B                
1 54149U 22138AN  26115.58200675  .00002070  00000+0  17671-3 0  9990
2 54149  87.3816 150.6504 0020612 348.2771  11.7978 14.97024661190948
XRISM                   
1 57800U 23137A   26115.91473162  .00006333  00000+0  35404-3 0  9997
2 57800  31.0029 338.0836 0007527 156.5936 203.5046 15.12003213144944
ACS3                    
1 59588U 24077B   26115.83846950  .00038930  00000+0  29970-1 0  9993
2 59588  97.1854  46.3558 0061470 346.0179  13.9282 13.91876309100755
HTV-X1                  
1 66174U 25241A   26112.99220554  .00004413  00000+0  14900-3 0  9994
2 66174  51.6353 219.4042 0007821 344.1053  15.9682 15.32728944 27734
SZ-21 MODULE            
1 66515U 25246C   26114.73427522  .00034872  00000+0  25922-3 0  9994
2 66515  41.4730 279.1403 0004099 320.8652  39.1894 15.72087630 25312
