[{"OBJECT_NAME":"HXMT (HUIYAN)","OBJECT_ID":"2017-034A","EPOCH":"2026-04-25T23:07:12.044640","MEAN_MOTION":15.1799201,"ECCENTRICITY":0.00314303,"INCLINATION":43.0132,"RA_OF_ASC_NODE":113.7281,"ARG_OF_PERICENTER":176.5103,"MEAN_ANOMALY":183.597,"EPHEMERIS_TYPE":0,"CLASSIFICATION_TYPE":"U","NORAD_CAT_ID":42758,"ELEMENT_SET_NO":999,"REV_AT_EPOCH":48972,"BSTAR":0.00019098667,"MEAN_MOTION_DOT":3.759e-5,"MEAN_MOTION_DDOT":0},{"OBJECT_NAME":"SAOCOM 1A","OBJECT_ID":"2018-076A","EPOCH":"2026-04-25T22:48:34.299072","MEAN_MOTION":14.8215546,"ECCENTRICITY":0.00015641,"INCLINATION":97.8906,"RA_OF_ASC_NODE":303.4548,"ARG_OF_PERICENTER":90.0147,"MEAN_ANOMALY":270.1245,"EPHEMERIS_TYPE":0,"CLASSIFICATION_TYPE":"U","NORAD_CAT_ID":43641,"ELEMENT_SET_NO":999,"REV_AT_EPOCH":40836,"BSTAR":0.00012954138,"MEAN_MOTION_DOT":9.79e-6,"MEAN_MOTION_DDOT":0},{"OBJECT_NAME":"H-2A R/B","OBJECT_ID":"2018-084L","EPOCH":"2026-04-25T21:33:30.626496","MEAN_MOTION":15.43208892,"ECCENTRICITY":0.00234115,"INCLINATION":98.8662,"RA_OF_ASC_NODE":343.4354,"ARG_OF_PERICENTER":216.3407,"MEAN_ANOMALY":143.6247,"EPHEMERIS_TYPE":0,"CLASSIFICATION_TYPE":"U","NORAD_CAT_ID":43682,"ELEMENT_SET_NO":999,"REV_AT_EPOCH":41305,"BSTAR":0.0004794202,"MEAN_MOTION_DOT":0.00021409,"MEAN_MOTION_DDOT":0},{"OBJECT_NAME":"SAOCOM 1B","OBJECT_ID":"2020-059A","EPOCH":"2026-04-25T21:56:17.332800","MEAN_MOTION":14.82140824,"ECCENTRICITY":0.00015419,"INCLINATION":97.8898,"RA_OF_ASC_NODE":302.5129,"ARG_OF_PERICENTER":83.723,"MEAN_ANOMALY":276.4158,"EPHEMERIS_TYPE":0,"CLASSIFICATION_TYPE":"U","NORAD_CAT_ID":46265,"ELEMENT_SET_NO":999,"REV_AT_EPOCH":30574,"BSTAR":-2.1726885e-5,"MEAN_MOTION_DOT":-2.25e-6,"MEAN_MOTION_DDOT":0},{"OBJECT_NAME":"CSS (TIANHE)","OBJECT_ID":"2021-035A","EPOCH":"2026-04-25T21:45:13.239072","MEAN_MOTION":15.62962461,"ECCENTRICITY":0.00068437,"INCLINATION":41.467,"RA_OF_ASC_NODE":280.3691,"ARG_OF_PERICENTER":274.1107,"MEAN_ANOMALY":85.895,"EPHEMERIS_TYPE":0,"CLASSIFICATION_TYPE":"U","NORAD_CAT_ID":48274,"ELEMENT_SET_NO":999,"REV_AT_EPOCH":28499,"BSTAR":0.000329162,"MEAN_MOTION_DOT":0.00030509,"MEAN_MOTION_DDOT":0},{"OBJECT_NAME":"COSMOS 2550","OBJECT_ID":"2021-056A","EPOCH":"2026-04-25T22:09:27.098784","MEAN_MOTION":15.33825298,"ECCENTRICITY":0.00084042,"INCLINATION":67.1428,"RA_OF_ASC_NODE":258.0008,"ARG_OF_PERICENTER":269.433,"MEAN_ANOMALY":90.5861,"EPHEMERIS_TYPE":0,"CLASSIFICATION_TYPE":"U","NORAD_CAT_ID":48865,"ELEMENT_SET_NO":999,"REV_AT_EPOCH":27070,"BSTAR":4.2561668e-5,"MEAN_MOTION_DOT":1.209e-5,"MEAN_MOTION_DDOT":0},{"OBJECT_NAME":"CZ-2C R/B","OBJECT_ID":"2022-058K","EPOCH":"2026-04-25T09:25:10.383456","MEAN_MOTION":15.57697834,"ECCENTRICITY":0.00389595,"INCLINATION":50.1868,"RA_OF_ASC_NODE":77.4034,"ARG_OF_PERICENTER":40.8644,"MEAN_ANOMALY":319.5237,"EPHEMERIS_TYPE":0,"CLASSIFICATION_TYPE":"U","NORAD_CAT_ID":52794,"ELEMENT_SET_NO":999,"REV_AT_EPOCH":21740,"BSTAR":0.00059662964,"MEAN_MOTION_DOT":0.00046492,"MEAN_MOTION_DDOT":0},{"OBJECT_NAME":"CZ-2C R/B","OBJECT_ID":"2022-132E","EPOCH":"2026-04-25T21:46:14.131200","MEAN_MOTION":15.66175497,"ECCENTRICITY":0.00128638,"INCLINATION":97.2942,"RA_OF_ASC_NODE":120.8189,"ARG_OF_PERICENTER":271.4101,"MEAN_ANOMALY":88.5686,"EPHEMERIS_TYPE":0,"CLASSIFICATION_TYPE":"U","NORAD_CAT_ID":54039,"ELEMENT_SET_NO":999,"REV_AT_EPOCH":19775,"BSTAR":0.00048811401,"MEAN_MOTION_DOT":0.00050458,"MEAN_MOTION_DDOT":0},{"OBJECT_NAME":"GSLV R/B","OBJECT_ID":"2022-138AN","EPOCH":"2026-04-25T13:58:05.383200","MEAN_MOTION":14.97024661,"ECCENTRICITY":0.00206122,"INCLINATION":87.3816,"RA_OF_ASC_NODE":150.6504,"ARG_OF_PERICENTER":348.2771,"MEAN_ANOMALY":11.7978,"EPHEMERIS_TYPE":0,"CLASSIFICATION_TYPE":"U","NORAD_CAT_ID":54149,"ELEMENT_SET_NO":999,"REV_AT_EPOCH":19094,"BSTAR":0.00017670739,"MEAN_MOTION_DOT":2.07e-5,"MEAN_MOTION_DDOT":0},{"OBJECT_NAME":"XRISM","OBJECT_ID":"2023-137A","EPOCH":"2026-04-25T21:57:12.811968","MEAN_MOTION":15.12003213,"ECCENTRICITY":0.00075278,"INCLINATION":31.0029,"RA_OF_ASC_NODE":338.0836,"ARG_OF_PERICENTER":156.5936,"MEAN_ANOMALY":203.5046,"EPHEMERIS_TYPE":0,"CLASSIFICATION_TYPE":"U","NORAD_CAT_ID":57800,"ELEMENT_SET_NO":999,"REV_AT_EPOCH":14494,"BSTAR":0.00035404126,"MEAN_MOTION_DOT":6.333e-5,"MEAN_MOTION_DDOT":0},{"OBJECT_NAME":"ACS3","OBJECT_ID":"2024-077B","EPOCH":"2026-04-25T20:07:23.764800","MEAN_MOTION":13.91876309,"ECCENTRICITY":0.00614708,"INCLINATION":97.1854,"RA_OF_ASC_NODE":46.3558,"ARG_OF_PERICENTER":346.0179,"MEAN_ANOMALY":13.9282,"EPHEMERIS_TYPE":0,"CLASSIFICATION_TYPE":"U","NORAD_CAT_ID":59588,"ELEMENT_SET_NO":999,"REV_AT_EPOCH":10075,"BSTAR":0.029970498,"MEAN_MOTION_DOT":0.0003893,"MEAN_MOTION_DDOT":0},{"OBJECT_NAME":"HTV-X1","OBJECT_ID":"2025-241A","EPOCH":"2026-04-22T23:48:46.558656","MEAN_MOTION":15.32728944,"ECCENTRICITY":0.00078219,"INCLINATION":51.6353,"RA_OF_ASC_NODE":219.4042,"ARG_OF_PERICENTER":344.1053,"MEAN_ANOMALY":15.9682,"EPHEMERIS_TYPE":0,"CLASSIFICATION_TYPE":"U","NORAD_CAT_ID":66174,"ELEMENT_SET_NO":999,"REV_AT_EPOCH":2773,"BSTAR":0.00014900059,"MEAN_MOTION_DOT":4.413e-5,"MEAN_MOTION_DDOT":0},{"OBJECT_NAME":"SZ-21 MODULE","OBJECT_ID":"2025-246C","EPOCH":"2026-04-24T17:37:21.379008","MEAN_MOTION":15.7208763,"ECCENTRICITY":0.0004099,"INCLINATION":41.473,"RA_OF_ASC_NODE":279.1403,"ARG_OF_PERICENTER":320.8652,"MEAN_ANOMALY":39.1894,"EPHEMERIS_TYPE":0,"CLASSIFICATION_TYPE":"U","NORAD_CAT_ID":66515,"ELEMENT_SET_NO":999,"REV_AT_EPOCH":2531,"BSTAR":0.00025921604,"MEAN_MOTION_DOT":0.00034872,"MEAN_MOTION_DDOT":0}]
